start=new Date('2023-04-30T00:00:00.000Z').valueOf();
sats=[{"TLE_LINE1":"1 54759U 22175B   23119.79692800 -.00001090  00000-0 -52987-4 0  9991","BSTAR":"-0.00005298700000","RCS_SIZE":"LARGE","EPHEMERIS_TYPE":"0","OBJECT_ID":"2022-175B","ARG_OF_PERICENTER":"87.3330","INCLINATION":"53.2188","NORAD_CAT_ID":"54759","REV_AT_EPOCH":"2008","MEAN_MOTION_DDOT":"0.0000000000000","RA_OF_ASC_NODE":"49.9864","MEAN_MOTION":"15.07207640","CLASSIFICATION_TYPE":"U","MEAN_ANOMALY":"272.7826","SEMIMAJOR_AXIS":"6922.874","GP_ID":"230939880","MEAN_MOTION_DOT":"-0.00001090","REF_FRAME":"TEME","OBJECT_TYPE":"PAYLOAD","FILE":"3896783","MEAN_ELEMENT_THEORY":"SGP4","OBJECT_NAME":"STARLINK-5215","APOAPSIS":"545.732","TLE_LINE2":"2 54759  53.2188  49.9864 0001434  87.3330 272.7826 15.07207640 20081","TIME_SYSTEM":"UTC","LAUNCH_DATE":"2022-12-17","CENTER_NAME":"EARTH","PERIAPSIS":"543.747","SITE":"AFETR","ECCENTRICITY":"0.00014340","PERIOD":"95.541","COUNTRY_CODE":"US","ELEMENT_SET_NO":"999","DECAY_DATE":null,"EPOCH":"2023-04-29T19:07:34.579200"},{"TLE_LINE1":"1 54760U 22175C   23119.20488233 -.00000988  00000-0 -44008-4 0  9992","RCS_SIZE":"LARGE","BSTAR":"-0.00004400800000","OBJECT_ID":"2022-175C","EPHEMERIS_TYPE":"0","ARG_OF_PERICENTER":"95.1104","NORAD_CAT_ID":"54760","INCLINATION":"53.2175","MEAN_MOTION_DDOT":"0.0000000000000","REV_AT_EPOCH":"2208","RA_OF_ASC_NODE":"57.6779","MEAN_MOTION":"15.08846898","MEAN_ANOMALY":"265.0015","CLASSIFICATION_TYPE":"U","GP_ID":"230931772","SEMIMAJOR_AXIS":"6917.859","OBJECT_TYPE":"PAYLOAD","FILE":"3896517","REF_FRAME":"TEME","MEAN_MOTION_DOT":"-0.00000988","MEAN_ELEMENT_THEORY":"SGP4","TLE_LINE2":"2 54760  53.2175  57.6779 0001106  95.1104 265.0015 15.08846898 22084","TIME_SYSTEM":"UTC","APOAPSIS":"540.489","OBJECT_NAME":"STARLINK-5220","LAUNCH_DATE":"2022-12-17","CENTER_NAME":"EARTH","PERIAPSIS":"538.959","SITE":"AFETR","PERIOD":"95.437","ECCENTRICITY":"0.00011060","COUNTRY_CODE":"US","ELEMENT_SET_NO":"999","DECAY_DATE":null,"EPOCH":"2023-04-29T04:55:01.833312"},{"PERIOD":"95.437","ECCENTRICITY":"0.00011790","SITE":"AFETR","PERIAPSIS":"538.908","CENTER_NAME":"EARTH","LAUNCH_DATE":"2022-12-17","TIME_SYSTEM":"UTC","TLE_LINE2":"2 54761  53.2182  57.4008 0001179  94.5941 265.5186 15.08847136 22099","OBJECT_NAME":"STARLINK-5202","APOAPSIS":"540.539","MEAN_ELEMENT_THEORY":"SGP4","EPOCH":"2023-04-29T06:35:43.520064","DECAY_DATE":null,"ELEMENT_SET_NO":"999","COUNTRY_CODE":"US","ARG_OF_PERICENTER":"94.5941","OBJECT_ID":"2022-175D","EPHEMERIS_TYPE":"0","RCS_SIZE":"LARGE","BSTAR":"0.00002206800000","TLE_LINE1":"1 54761U 22175D   23119.27480926  .00000063  00000-0  22068-4 0  9995","OBJECT_TYPE":"PAYLOAD","FILE":"3896517","MEAN_MOTION_DOT":"0.00000063","REF_FRAME":"TEME","GP_ID":"230931522","SEMIMAJOR_AXIS":"6917.859","MEAN_ANOMALY":"265.5186","CLASSIFICATION_TYPE":"U","RA_OF_ASC_NODE":"57.4008","MEAN_MOTION":"15.08847136","MEAN_MOTION_DDOT":"0.0000000000000","REV_AT_EPOCH":"2209","NORAD_CAT_ID":"54761","INCLINATION":"53.2182"},{"EPHEMERIS_TYPE":"0","OBJECT_ID":"2022-175E","ARG_OF_PERICENTER":"117.7665","TLE_LINE1":"1 54762U 22175E   23118.99974526 -.00008618  00000-0 -52381-3 0  9994","BSTAR":"-0.00052381000000","RCS_SIZE":"LARGE","CLASSIFICATION_TYPE":"U","MEAN_ANOMALY":"242.3490","SEMIMAJOR_AXIS":"6917.840","GP_ID":"230939534","MEAN_MOTION_DOT":"-0.00008618","REF_FRAME":"TEME","FILE":"3896785","OBJECT_TYPE":"PAYLOAD","INCLINATION":"53.2192","NORAD_CAT_ID":"54762","REV_AT_EPOCH":"1989","MEAN_MOTION_DDOT":"0.0000000000000","MEAN_MOTION":"15.08853237","RA_OF_ASC_NODE":"58.5317","PERIAPSIS":"538.597","SITE":"AFETR","ECCENTRICITY":"0.00016020","PERIOD":"95.437","MEAN_ELEMENT_THEORY":"SGP4","OBJECT_NAME":"STARLINK-5214","APOAPSIS":"540.813","TLE_LINE2":"2 54762  53.2192  58.5317 0001602 117.7665 242.3490 15.08853237 19892","TIME_SYSTEM":"UTC","LAUNCH_DATE":"2022-12-17","CENTER_NAME":"EARTH","DECAY_DATE":null,"EPOCH":"2023-04-28T23:59:37.990464","COUNTRY_CODE":"US","ELEMENT_SET_NO":"999"},{"SITE":"AFETR","ECCENTRICITY":"0.00012930","PERIOD":"95.437","PERIAPSIS":"538.824","LAUNCH_DATE":"2022-12-17","CENTER_NAME":"EARTH","MEAN_ELEMENT_THEORY":"SGP4","OBJECT_NAME":"STARLINK-5191","APOAPSIS":"540.613","TIME_SYSTEM":"UTC","TLE_LINE2":"2 54763  53.2162  54.9799 0001293  98.6049 261.5089 15.08848729 20016","EPOCH":"2023-04-29T19:08:11.681088","DECAY_DATE":null,"ELEMENT_SET_NO":"999","COUNTRY_CODE":"US","ARG_OF_PERICENTER":"98.6049","OBJECT_ID":"2022-175F","EPHEMERIS_TYPE":"0","BSTAR":"0.00091304000000","RCS_SIZE":"LARGE","TLE_LINE1":"1 54763U 22175F   23119.79735742  .00014276  00000-0  91304-3 0  9992","SEMIMAJOR_AXIS":"6917.854","GP_ID":"230940097","REF_FRAME":"TEME","MEAN_MOTION_DOT":"0.00014276","FILE":"3896807","OBJECT_TYPE":"PAYLOAD","CLASSIFICATION_TYPE":"U","MEAN_ANOMALY":"261.5089","REV_AT_EPOCH":"2001","MEAN_MOTION_DDOT":"0.0000000000000","RA_OF_ASC_NODE":"54.9799","MEAN_MOTION":"15.08848729","INCLINATION":"53.2162","NORAD_CAT_ID":"54763"},{"DECAY_DATE":null,"EPOCH":"2023-04-29T06:14:30.170688","COUNTRY_CODE":"US","ELEMENT_SET_NO":"999","PERIAPSIS":"538.899","SITE":"AFETR","ECCENTRICITY":"0.00012070","PERIOD":"95.437","MEAN_ELEMENT_THEORY":"SGP4","OBJECT_NAME":"STARLINK-5458","APOAPSIS":"540.569","TLE_LINE2":"2 54764  53.2187  57.3071 0001207  87.8028 272.3102 15.08843707 22093","TIME_SYSTEM":"UTC","LAUNCH_DATE":"2022-12-17","CENTER_NAME":"EARTH","CLASSIFICATION_TYPE":"U","MEAN_ANOMALY":"272.3102","SEMIMAJOR_AXIS":"6917.869","GP_ID":"230931272","REF_FRAME":"TEME","MEAN_MOTION_DOT":"-0.00001287","OBJECT_TYPE":"PAYLOAD","FILE":"3896517","INCLINATION":"53.2187","NORAD_CAT_ID":"54764","REV_AT_EPOCH":"2209","MEAN_MOTION_DDOT":"0.0000000000000","RA_OF_ASC_NODE":"57.3071","MEAN_MOTION":"15.08843707","EPHEMERIS_TYPE":"0","OBJECT_ID":"2022-175G","ARG_OF_PERICENTER":"87.8028","TLE_LINE1":"1 54764U 22175G   23119.26007142 -.00001287  00000-0 -62802-4 0  9993","BSTAR":"-0.00006280200000","RCS_SIZE":"LARGE"},{"MEAN_MOTION":"15.08845155","RA_OF_ASC_NODE":"58.5190","MEAN_MOTION_DDOT":"0.0000000000000","REV_AT_EPOCH":"2205","NORAD_CAT_ID":"54765","INCLINATION":"53.2179","FILE":"3896517","OBJECT_TYPE":"PAYLOAD","MEAN_MOTION_DOT":"-0.00001952","REF_FRAME":"TEME","GP_ID":"230932023","SEMIMAJOR_AXIS":"6917.865","MEAN_ANOMALY":"251.3441","CLASSIFICATION_TYPE":"U","RCS_SIZE":"LARGE","BSTAR":"-0.00010460000000","TLE_LINE1":"1 54765U 22175H   23118.99879062 -.00001952  00000-0 -10460-3 0  9992","ARG_OF_PERICENTER":"108.7675","OBJECT_ID":"2022-175H","EPHEMERIS_TYPE":"0","ELEMENT_SET_NO":"999","COUNTRY_CODE":"US","EPOCH":"2023-04-28T23:58:15.509568","DECAY_DATE":null,"CENTER_NAME":"EARTH","LAUNCH_DATE":"2022-12-17","TLE_LINE2":"2 54765  53.2179  58.5190 0001141 108.7675 251.3441 15.08845155 22056","TIME_SYSTEM":"UTC","APOAPSIS":"540.519","OBJECT_NAME":"STARLINK-5466","MEAN_ELEMENT_THEORY":"SGP4","PERIOD":"95.437","ECCENTRICITY":"0.00011410","SITE":"AFETR","PERIAPSIS":"538.940"},{"INCLINATION":"53.2182","NORAD_CAT_ID":"54766","RA_OF_ASC_NODE":"54.5853","MEAN_MOTION":"15.08841235","REV_AT_EPOCH":"2002","MEAN_MOTION_DDOT":"0.0000000000000","CLASSIFICATION_TYPE":"U","MEAN_ANOMALY":"271.6952","REF_FRAME":"TEME","MEAN_MOTION_DOT":"0.00005808","FILE":"3896802","OBJECT_TYPE":"PAYLOAD","SEMIMAJOR_AXIS":"6917.877","GP_ID":"230939578","TLE_LINE1":"1 54766U 22175J   23119.84886015  .00005808  00000-0  38266-3 0  9990","BSTAR":"0.00038266000000","RCS_SIZE":"LARGE","EPHEMERIS_TYPE":"0","OBJECT_ID":"2022-175J","ARG_OF_PERICENTER":"88.4177","COUNTRY_CODE":"US","ELEMENT_SET_NO":"999","DECAY_DATE":null,"EPOCH":"2023-04-29T20:22:21.516960","APOAPSIS":"540.564","OBJECT_NAME":"STARLINK-5471","TLE_LINE2":"2 54766  53.2182  54.5853 0001189  88.4177 271.6952 15.08841235 20028","TIME_SYSTEM":"UTC","MEAN_ELEMENT_THEORY":"SGP4","CENTER_NAME":"EARTH","LAUNCH_DATE":"2022-12-17","PERIAPSIS":"538.919","ECCENTRICITY":"0.00011890","PERIOD":"95.437","SITE":"AFETR"},{"OBJECT_ID":"2022-175K","EPHEMERIS_TYPE":"0","ARG_OF_PERICENTER":"102.4519","TLE_LINE1":"1 54767U 22175K   23119.24901433 -.00000483  00000-0 -12265-4 0  9995","RCS_SIZE":"LARGE","BSTAR":"-0.00001226500000","MEAN_ANOMALY":"257.6601","CLASSIFICATION_TYPE":"U","OBJECT_TYPE":"PAYLOAD","FILE":"3896517","REF_FRAME":"TEME","MEAN_MOTION_DOT":"-0.00000483","GP_ID":"230932506","SEMIMAJOR_AXIS":"6917.856","NORAD_CAT_ID":"54767","INCLINATION":"53.2194","MEAN_MOTION":"15.08847840","RA_OF_ASC_NODE":"57.2376","MEAN_MOTION_DDOT":"0.0000000000000","REV_AT_EPOCH":"2209","PERIAPSIS":"538.935","PERIOD":"95.437","ECCENTRICITY":"0.00011370","SITE":"AFETR","TLE_LINE2":"2 54767  53.2194  57.2376 0001137 102.4519 257.6601 15.08847840 22094","TIME_SYSTEM":"UTC","APOAPSIS":"540.508","OBJECT_NAME":"STARLINK-5472","MEAN_ELEMENT_THEORY":"SGP4","CENTER_NAME":"EARTH","LAUNCH_DATE":"2022-12-17","DECAY_DATE":null,"EPOCH":"2023-04-29T05:58:34.838112","COUNTRY_CODE":"US","ELEMENT_SET_NO":"999"},{"DECAY_DATE":null,"EPOCH":"2023-04-29T17:37:27.430464","COUNTRY_CODE":"US","ELEMENT_SET_NO":"999","PERIAPSIS":"538.617","SITE":"AFETR","ECCENTRICITY":"0.00016950","PERIOD":"95.438","MEAN_ELEMENT_THEORY":"SGP4","OBJECT_NAME":"STARLINK-5444","APOAPSIS":"540.962","TIME_SYSTEM":"UTC","TLE_LINE2":"2 54768  53.2180  40.3317 0001695  90.9064 269.2122 15.08825544 20219","LAUNCH_DATE":"2022-12-17","CENTER_NAME":"EARTH","CLASSIFICATION_TYPE":"U","MEAN_ANOMALY":"269.2122","SEMIMAJOR_AXIS":"6917.925","GP_ID":"230939973","MEAN_MOTION_DOT":"0.00000419","REF_FRAME":"TEME","OBJECT_TYPE":"PAYLOAD","FILE":"3896788","INCLINATION":"53.2180","NORAD_CAT_ID":"54768","REV_AT_EPOCH":"2021","MEAN_MOTION_DDOT":"0.0000000000000","RA_OF_ASC_NODE":"40.3317","MEAN_MOTION":"15.08825544","OBJECT_ID":"2022-175L","EPHEMERIS_TYPE":"0","ARG_OF_PERICENTER":"90.9064","TLE_LINE1":"1 54768U 22175L   23119.73434526  .00000419  00000-0  44433-4 0  9993","BSTAR":"0.00004443300000","RCS_SIZE":"LARGE"}];
